{
    "links": {
        "self": "http://www.neowsapp.com/rest/v1/neo/3843432?api_key=iIulBulltgU6a56xZRHN4H3l9WmuAYTsLGpBGhQ2"
    },
    "id": "3843432",
    "neo_reference_id": "3843432",
    "name": "(2019 OZ3)",
    "designation": "2019 OZ3",
    "nasa_jpl_url": "http://ssd.jpl.nasa.gov/sbdb.cgi?sstr=3843432",
    "absolute_magnitude_h": 26.6,
    "estimated_diameter": {
        "kilometers": {
            "estimated_diameter_min": 0.0127219879,
            "estimated_diameter_max": 0.0284472297
        },
        "meters": {
            "estimated_diameter_min": 12.7219878539,
            "estimated_diameter_max": 28.4472296503
        },
        "miles": {
            "estimated_diameter_min": 0.0079050743,
            "estimated_diameter_max": 0.0176762835
        },
        "feet": {
            "estimated_diameter_min": 41.7388066307,
            "estimated_diameter_max": 93.330808926
        }
    },
    "is_potentially_hazardous_asteroid": false,
    "close_approach_data": [
        {
            "close_approach_date": "2019-07-31",
            "close_approach_date_full": "2019-Jul-31 13:43",
            "epoch_date_close_approach": 1564580580000,
            "relative_velocity": {
                "kilometers_per_second": "6.9617110242",
                "kilometers_per_hour": "25062.1596870201",
                "miles_per_hour": "15572.6513899709"
            },
            "miss_distance": {
                "astronomical": "0.109377348",
                "lunar": "42.547788372",
                "kilometers": "16362618.28704876",
                "miles": "10167259.541482488"
            },
            "orbiting_body": "Earth"
        }
    ],
    "orbital_data": {
        "orbit_id": "1",
        "orbit_determination_date": "2019-07-31 23:18:13",
        "first_observation_date": "2019-07-29",
        "last_observation_date": "2019-07-31",
        "data_arc_in_days": 2,
        "observations_used": 8,
        "orbit_uncertainty": "9",
        "minimum_orbit_intersection": ".109357",
        "jupiter_tisserand_invariant": "3.560",
        "epoch_osculation": "2458694.5",
        "eccentricity": ".4716135341634358",
        "semi_major_axis": "2.125913885523774",
        "inclination": "9.239965790285693",
        "ascending_node_longitude": "304.6554963542923",
        "orbital_period": "1132.183782472139",
        "perihelion_distance": "1.123304124644785",
        "perihelion_argument": "7.066394413987592",
        "aphelion_distance": "3.128523646402762",
        "perihelion_time": "2458699.777503646291",
        "mean_anomaly": "358.3219143905097",
        "mean_motion": ".3179695784141467",
        "equinox": "J2000",
        "orbit_class": {
            "orbit_class_type": "AMO",
            "orbit_class_description": "Near-Earth asteroid orbits similar to that of 1221 Amor",
            "orbit_class_range": "1.017 AU < q (perihelion) < 1.3 AU"
        }
    },
    "is_sentry_object": false
}